{"fetched_at":"2026-07-13T18:16:33.417Z","source":"https://celestrak.org/NORAD/elements/gp.php?GROUP=planet&FORMAT=JSON","constellation":"skysat","records":[{"OBJECT_NAME":"SKYSAT-A","OBJECT_ID":"2013-066C","EPOCH":"2026-07-12T15:40:01.594272","CLASSIFICATION_TYPE":"U","MEAN_MOTION":15.13106553,"ECCENTRICITY":0.00202499,"INCLINATION":97.3804,"RA_OF_ASC_NODE":242.2385,"ARG_OF_PERICENTER":222.7187,"MEAN_ANOMALY":137.2471,"EPHEMERIS_TYPE":0,"NORAD_CAT_ID":39418,"ELEMENT_SET_NO":999,"REV_AT_EPOCH":69233,"BSTAR":0.000091024348,"MEAN_MOTION_DOT":0.00001555,"MEAN_MOTION_DDOT":0},{"OBJECT_NAME":"SKYSAT-B","OBJECT_ID":"2014-037D","EPOCH":"2026-07-12T21:05:41.823456","CLASSIFICATION_TYPE":"U","MEAN_MOTION":14.88088942,"ECCENTRICITY":0.00053934,"INCLINATION":98.3853,"RA_OF_ASC_NODE":154.3116,"ARG_OF_PERICENTER":179.8697,"MEAN_ANOMALY":180.252,"EPHEMERIS_TYPE":0,"NORAD_CAT_ID":40072,"ELEMENT_SET_NO":999,"REV_AT_EPOCH":64978,"BSTAR":0.000076424361,"MEAN_MOTION_DOT":0.00000641,"MEAN_MOTION_DDOT":0},{"OBJECT_NAME":"SKYSAT-C1","OBJECT_ID":"2016-040C","EPOCH":"2026-07-11T15:19:14.131200","CLASSIFICATION_TYPE":"U","MEAN_MOTION":15.36708815,"ECCENTRICITY":0.0000645,"INCLINATION":96.9557,"RA_OF_ASC_NODE":223.0369,"ARG_OF_PERICENTER":355.4804,"MEAN_ANOMALY":4.6435,"EPHEMERIS_TYPE":0,"NORAD_CAT_ID":41601,"ELEMENT_SET_NO":999,"REV_AT_EPOCH":56162,"BSTAR":0.00015588995,"MEAN_MOTION_DOT":0.00005514,"MEAN_MOTION_DDOT":0},{"OBJECT_NAME":"SKYSAT-C4","OBJECT_ID":"2016-058B","EPOCH":"2026-07-12T14:11:16.089216","CLASSIFICATION_TYPE":"U","MEAN_MOTION":15.49378795,"ECCENTRICITY":0.0003375,"INCLINATION":96.9166,"RA_OF_ASC_NODE":214.3113,"ARG_OF_PERICENTER":121.6663,"MEAN_ANOMALY":238.4919,"EPHEMERIS_TYPE":0,"NORAD_CAT_ID":41771,"ELEMENT_SET_NO":999,"REV_AT_EPOCH":54940,"BSTAR":0.00021392,"MEAN_MOTION_DOT":0.00011647,"MEAN_MOTION_DDOT":0},{"OBJECT_NAME":"SKYSAT-C5","OBJECT_ID":"2016-058C","EPOCH":"2026-07-12T16:00:08.751744","CLASSIFICATION_TYPE":"U","MEAN_MOTION":15.33697336,"ECCENTRICITY":0.00022621,"INCLINATION":97.0459,"RA_OF_ASC_NODE":233.1668,"ARG_OF_PERICENTER":167.5326,"MEAN_ANOMALY":192.5974,"EPHEMERIS_TYPE":0,"NORAD_CAT_ID":41772,"ELEMENT_SET_NO":999,"REV_AT_EPOCH":54765,"BSTAR":0.00014076646,"MEAN_MOTION_DOT":0.00004512,"MEAN_MOTION_DDOT":0},{"OBJECT_NAME":"SKYSAT-C2","OBJECT_ID":"2016-058D","EPOCH":"2026-07-12T13:29:11.076000","CLASSIFICATION_TYPE":"U","MEAN_MOTION":15.42640053,"ECCENTRICITY":0.0001849,"INCLINATION":97.016,"RA_OF_ASC_NODE":214.7089,"ARG_OF_PERICENTER":5.3443,"MEAN_ANOMALY":354.7825,"EPHEMERIS_TYPE":0,"NORAD_CAT_ID":41773,"ELEMENT_SET_NO":999,"REV_AT_EPOCH":54896,"BSTAR":0.00018376,"MEAN_MOTION_DOT":0.0000792,"MEAN_MOTION_DDOT":0},{"OBJECT_NAME":"SKYSAT-C3","OBJECT_ID":"2016-058E","EPOCH":"2026-07-12T15:47:28.423968","CLASSIFICATION_TYPE":"U","MEAN_MOTION":15.53626037,"ECCENTRICITY":0.00024137,"INCLINATION":96.8992,"RA_OF_ASC_NODE":223.5415,"ARG_OF_PERICENTER":136.6705,"MEAN_ANOMALY":223.474,"EPHEMERIS_TYPE":0,"NORAD_CAT_ID":41774,"ELEMENT_SET_NO":999,"REV_AT_EPOCH":55006,"BSTAR":0.00024693351,"MEAN_MOTION_DOT":0.00015667,"MEAN_MOTION_DDOT":0},{"OBJECT_NAME":"SKYSAT-C11","OBJECT_ID":"2017-068A","EPOCH":"2026-07-13T07:35:48.695712","CLASSIFICATION_TYPE":"U","MEAN_MOTION":15.59252022,"ECCENTRICITY":0.00010748,"INCLINATION":97.437,"RA_OF_ASC_NODE":344.3152,"ARG_OF_PERICENTER":158.859,"MEAN_ANOMALY":201.2711,"EPHEMERIS_TYPE":0,"NORAD_CAT_ID":42987,"ELEMENT_SET_NO":999,"REV_AT_EPOCH":48731,"BSTAR":0.00024809907,"MEAN_MOTION_DOT":0.00019386,"MEAN_MOTION_DDOT":0},{"OBJECT_NAME":"SKYSAT-C10","OBJECT_ID":"2017-068B","EPOCH":"2026-07-12T21:55:58.393920","CLASSIFICATION_TYPE":"U","MEAN_MOTION":15.35089047,"ECCENTRICITY":0.0001412,"INCLINATION":97.4529,"RA_OF_ASC_NODE":331.0233,"ARG_OF_PERICENTER":109.5205,"MEAN_ANOMALY":250.6191,"EPHEMERIS_TYPE":0,"NORAD_CAT_ID":42988,"ELEMENT_SET_NO":999,"REV_AT_EPOCH":48630,"BSTAR":0.00022091887,"MEAN_MOTION_DOT":0.0000744,"MEAN_MOTION_DDOT":0},{"OBJECT_NAME":"SKYSAT-C9","OBJECT_ID":"2017-068C","EPOCH":"2026-07-13T07:52:16.229568","CLASSIFICATION_TYPE":"U","MEAN_MOTION":15.42184723,"ECCENTRICITY":0.00088009,"INCLINATION":97.4449,"RA_OF_ASC_NODE":332.6299,"ARG_OF_PERICENTER":50.8893,"MEAN_ANOMALY":309.3135,"EPHEMERIS_TYPE":0,"NORAD_CAT_ID":42989,"ELEMENT_SET_NO":999,"REV_AT_EPOCH":48678,"BSTAR":0.00018594349,"MEAN_MOTION_DOT":0.00007895,"MEAN_MOTION_DDOT":0},{"OBJECT_NAME":"SKYSAT-C8","OBJECT_ID":"2017-068D","EPOCH":"2026-07-12T23:25:13.596384","CLASSIFICATION_TYPE":"U","MEAN_MOTION":15.37465076,"ECCENTRICITY":0.00012358,"INCLINATION":97.4545,"RA_OF_ASC_NODE":330.985,"ARG_OF_PERICENTER":101.6418,"MEAN_ANOMALY":258.4966,"EPHEMERIS_TYPE":0,"NORAD_CAT_ID":42990,"ELEMENT_SET_NO":999,"REV_AT_EPOCH":48627,"BSTAR":0.00019717626,"MEAN_MOTION_DOT":0.0000716,"MEAN_MOTION_DDOT":0},{"OBJECT_NAME":"SKYSAT-C7","OBJECT_ID":"2017-068E","EPOCH":"2026-07-12T21:43:27.525216","CLASSIFICATION_TYPE":"U","MEAN_MOTION":15.37415204,"ECCENTRICITY":0.00059008,"INCLINATION":97.4558,"RA_OF_ASC_NODE":331.9045,"ARG_OF_PERICENTER":29.1187,"MEAN_ANOMALY":331.0385,"EPHEMERIS_TYPE":0,"NORAD_CAT_ID":42991,"ELEMENT_SET_NO":999,"REV_AT_EPOCH":48632,"BSTAR":0.00019128832,"MEAN_MOTION_DOT":0.00006935,"MEAN_MOTION_DDOT":0},{"OBJECT_NAME":"SKYSAT-C6","OBJECT_ID":"2017-068F","EPOCH":"2026-07-12T23:24:33.638112","CLASSIFICATION_TYPE":"U","MEAN_MOTION":15.34147028,"ECCENTRICITY":0.00051392,"INCLINATION":97.4595,"RA_OF_ASC_NODE":331.8393,"ARG_OF_PERICENTER":94.7511,"MEAN_ANOMALY":265.4318,"EPHEMERIS_TYPE":0,"NORAD_CAT_ID":42992,"ELEMENT_SET_NO":999,"REV_AT_EPOCH":48627,"BSTAR":0.00018567285,"MEAN_MOTION_DOT":0.00006056,"MEAN_MOTION_DDOT":0},{"OBJECT_NAME":"SKYSAT-C12","OBJECT_ID":"2018-099AR","EPOCH":"2026-07-13T07:36:18.441504","CLASSIFICATION_TYPE":"U","MEAN_MOTION":15.49743918,"ECCENTRICITY":0.00054704,"INCLINATION":96.9253,"RA_OF_ASC_NODE":216.5155,"ARG_OF_PERICENTER":74.3752,"MEAN_ANOMALY":285.8104,"EPHEMERIS_TYPE":0,"NORAD_CAT_ID":43797,"ELEMENT_SET_NO":999,"REV_AT_EPOCH":42590,"BSTAR":0.00020596416,"MEAN_MOTION_DOT":0.0001136,"MEAN_MOTION_DDOT":0}]}
